[{"OBJECT_NAME":"BEIDOU-3 M1 (C19)","OBJECT_ID":"2017-069A","EPOCH":"2026-04-27T02:55:56.822880","MEAN_MOTION":1.86230928,"ECCENTRICITY":0.00121591,"INCLINATION":56.6503,"RA_OF_ASC_NODE":64.7651,"ARG_OF_PERICENTER":318.4721,"MEAN_ANOMALY":41.4043,"EPHEMERIS_TYPE":0,"CLASSIFICATION_TYPE":"U","NORAD_CAT_ID":43001,"ELEMENT_SET_NO":999,"REV_AT_EPOCH":5765,"BSTAR":0,"MEAN_MOTION_DOT":-4.5e-7,"MEAN_MOTION_DDOT":0},{"OBJECT_NAME":"BEIDOU-3 M2 (C20)","OBJECT_ID":"2017-069B","EPOCH":"2026-04-27T01:27:33.427584","MEAN_MOTION":1.86230402,"ECCENTRICITY":0.00101762,"INCLINATION":56.6494,"RA_OF_ASC_NODE":64.8033,"ARG_OF_PERICENTER":339.3038,"MEAN_ANOMALY":20.6238,"EPHEMERIS_TYPE":0,"CLASSIFICATION_TYPE":"U","NORAD_CAT_ID":43002,"ELEMENT_SET_NO":999,"REV_AT_EPOCH":5764,"BSTAR":0,"MEAN_MOTION_DOT":-4.4e-7,"MEAN_MOTION_DDOT":0},{"OBJECT_NAME":"BEIDOU-3 M7 (C27)","OBJECT_ID":"2018-003A","EPOCH":"2026-04-24T02:49:17.895072","MEAN_MOTION":1.86227876,"ECCENTRICITY":0.00053048,"INCLINATION":54.3768,"RA_OF_ASC_NODE":304.1996,"ARG_OF_PERICENTER":82.0952,"MEAN_ANOMALY":277.9663,"EPHEMERIS_TYPE":0,"CLASSIFICATION_TYPE":"U","NORAD_CAT_ID":43107,"ELEMENT_SET_NO":999,"REV_AT_EPOCH":5634,"BSTAR":0,"MEAN_MOTION_DOT":-4.5e-7,"MEAN_MOTION_DDOT":0},{"OBJECT_NAME":"BEIDOU-3 M8 (C28)","OBJECT_ID":"2018-003B","EPOCH":"2026-04-26T05:03:49.853952","MEAN_MOTION":1.86230705,"ECCENTRICITY":0.00021855,"INCLINATION":54.3678,"RA_OF_ASC_NODE":304.1083,"ARG_OF_PERICENTER":285.2373,"MEAN_ANOMALY":74.7389,"EPHEMERIS_TYPE":0,"CLASSIFICATION_TYPE":"U","NORAD_CAT_ID":43108,"ELEMENT_SET_NO":999,"REV_AT_EPOCH":5639,"BSTAR":0,"MEAN_MOTION_DOT":-5.7e-7,"MEAN_MOTION_DDOT":0},{"OBJECT_NAME":"BEIDOU-3 M4 (C22)","OBJECT_ID":"2018-018A","EPOCH":"2026-04-25T01:01:24.618720","MEAN_MOTION":1.86230859,"ECCENTRICITY":0.00078711,"INCLINATION":56.6074,"RA_OF_ASC_NODE":64.8995,"ARG_OF_PERICENTER":1.77,"MEAN_ANOMALY":358.2071,"EPHEMERIS_TYPE":0,"CLASSIFICATION_TYPE":"U","NORAD_CAT_ID":43207,"ELEMENT_SET_NO":999,"REV_AT_EPOCH":5575,"BSTAR":0,"MEAN_MOTION_DOT":-2.5e-7,"MEAN_MOTION_DDOT":0},{"OBJECT_NAME":"BEIDOU-3 M3 (C21)","OBJECT_ID":"2018-018B","EPOCH":"2026-04-26T17:16:44.193216","MEAN_MOTION":1.86230932,"ECCENTRICITY":0.00100419,"INCLINATION":56.6084,"RA_OF_ASC_NODE":64.8481,"ARG_OF_PERICENTER":330.2132,"MEAN_ANOMALY":29.6996,"EPHEMERIS_TYPE":0,"CLASSIFICATION_TYPE":"U","NORAD_CAT_ID":43208,"ELEMENT_SET_NO":999,"REV_AT_EPOCH":5578,"BSTAR":0,"MEAN_MOTION_DOT":-4.1e-7,"MEAN_MOTION_DDOT":0},{"OBJECT_NAME":"BEIDOU-3 M9 (C29)","OBJECT_ID":"2018-029A","EPOCH":"2026-04-26T22:30:03.259008","MEAN_MOTION":1.86228066,"ECCENTRICITY":9.689e-5,"INCLINATION":54.2409,"RA_OF_ASC_NODE":301.7393,"ARG_OF_PERICENTER":84.0753,"MEAN_ANOMALY":275.9312,"EPHEMERIS_TYPE":0,"CLASSIFICATION_TYPE":"U","NORAD_CAT_ID":43245,"ELEMENT_SET_NO":999,"REV_AT_EPOCH":5494,"BSTAR":0,"MEAN_MOTION_DOT":-6.2e-7,"MEAN_MOTION_DDOT":0},{"OBJECT_NAME":"BEIDOU-3 M10 (C30)","OBJECT_ID":"2018-029B","EPOCH":"2026-04-26T20:55:54.611904","MEAN_MOTION":1.86228913,"ECCENTRICITY":0.0004834,"INCLINATION":54.239,"RA_OF_ASC_NODE":301.7693,"ARG_OF_PERICENTER":35.3233,"MEAN_ANOMALY":324.7045,"EPHEMERIS_TYPE":0,"CLASSIFICATION_TYPE":"U","NORAD_CAT_ID":43246,"ELEMENT_SET_NO":999,"REV_AT_EPOCH":5492,"BSTAR":0,"MEAN_MOTION_DOT":-6.1e-7,"MEAN_MOTION_DDOT":0},{"OBJECT_NAME":"BEIDOU-2 IGSO-7 (C16)","OBJECT_ID":"2018-057A","EPOCH":"2026-04-23T19:51:45.184320","MEAN_MOTION":1.00267626,"ECCENTRICITY":0.01032717,"INCLINATION":55.1848,"RA_OF_ASC_NODE":163.5332,"ARG_OF_PERICENTER":237.5854,"MEAN_ANOMALY":221.4335,"EPHEMERIS_TYPE":0,"CLASSIFICATION_TYPE":"U","NORAD_CAT_ID":43539,"ELEMENT_SET_NO":999,"REV_AT_EPOCH":2858,"BSTAR":0,"MEAN_MOTION_DOT":-9.9e-7,"MEAN_MOTION_DDOT":0},{"OBJECT_NAME":"BEIDOU-3 M5 (C23)","OBJECT_ID":"2018-062A","EPOCH":"2026-04-27T02:18:45.453888","MEAN_MOTION":1.86228549,"ECCENTRICITY":0.00043361,"INCLINATION":54.0832,"RA_OF_ASC_NODE":184.0412,"ARG_OF_PERICENTER":289.5568,"MEAN_ANOMALY":70.46,"EPHEMERIS_TYPE":0,"CLASSIFICATION_TYPE":"U","NORAD_CAT_ID":43581,"ELEMENT_SET_NO":999,"REV_AT_EPOCH":5268,"BSTAR":0,"MEAN_MOTION_DOT":9.0e-8,"MEAN_MOTION_DDOT":0},{"OBJECT_NAME":"BEIDOU-3 M6 (C24)","OBJECT_ID":"2018-062B","EPOCH":"2026-04-25T08:22:06.536928","MEAN_MOTION":1.86227595,"ECCENTRICITY":0.0004888,"INCLINATION":54.0829,"RA_OF_ASC_NODE":184.0898,"ARG_OF_PERICENTER":23.5128,"MEAN_ANOMALY":336.5677,"EPHEMERIS_TYPE":0,"CLASSIFICATION_TYPE":"U","NORAD_CAT_ID":43582,"ELEMENT_SET_NO":999,"REV_AT_EPOCH":5265,"BSTAR":0,"MEAN_MOTION_DOT":-1.0e-7,"MEAN_MOTION_DDOT":0},{"OBJECT_NAME":"BEIDOU-3 M12 (C26)","OBJECT_ID":"2018-067A","EPOCH":"2026-04-24T18:00:11.028096","MEAN_MOTION":1.86227717,"ECCENTRICITY":0.00078775,"INCLINATION":54.1783,"RA_OF_ASC_NODE":182.8527,"ARG_OF_PERICENTER":33.8697,"MEAN_ANOMALY":326.2399,"EPHEMERIS_TYPE":0,"CLASSIFICATION_TYPE":"U","NORAD_CAT_ID":43602,"ELEMENT_SET_NO":999,"REV_AT_EPOCH":5212,"BSTAR":0,"MEAN_MOTION_DOT":-1.0e-7,"MEAN_MOTION_DDOT":0},{"OBJECT_NAME":"BEIDOU-3 M11 (C25)","OBJECT_ID":"2018-067B","EPOCH":"2026-04-27T00:47:21.024672","MEAN_MOTION":1.8622716,"ECCENTRICITY":0.00044813,"INCLINATION":54.1752,"RA_OF_ASC_NODE":182.7389,"ARG_OF_PERICENTER":21.1333,"MEAN_ANOMALY":338.9501,"EPHEMERIS_TYPE":0,"CLASSIFICATION_TYPE":"U","NORAD_CAT_ID":43603,"ELEMENT_SET_NO":999,"REV_AT_EPOCH":5219,"BSTAR":0,"MEAN_MOTION_DOT":1.1e-7,"MEAN_MOTION_DDOT":0},{"OBJECT_NAME":"BEIDOU-3 M13 (C32)","OBJECT_ID":"2018-072A","EPOCH":"2026-04-26T23:42:48.256128","MEAN_MOTION":1.86230948,"ECCENTRICITY":0.00088464,"INCLINATION":56.5822,"RA_OF_ASC_NODE":64.348,"ARG_OF_PERICENTER":318.5007,"MEAN_ANOMALY":41.4014,"EPHEMERIS_TYPE":0,"CLASSIFICATION_TYPE":"U","NORAD_CAT_ID":43622,"ELEMENT_SET_NO":999,"REV_AT_EPOCH":5170,"BSTAR":0,"MEAN_MOTION_DOT":-4.5e-7,"MEAN_MOTION_DDOT":0},{"OBJECT_NAME":"BEIDOU-3 M14 (C33)","OBJECT_ID":"2018-072B","EPOCH":"2026-04-24T16:56:11.825088","MEAN_MOTION":1.86231012,"ECCENTRICITY":0.00069215,"INCLINATION":56.5822,"RA_OF_ASC_NODE":64.4176,"ARG_OF_PERICENTER":342.3518,"MEAN_ANOMALY":17.5993,"EPHEMERIS_TYPE":0,"CLASSIFICATION_TYPE":"U","NORAD_CAT_ID":43623,"ELEMENT_SET_NO":999,"REV_AT_EPOCH":5165,"BSTAR":0,"MEAN_MOTION_DOT":-2.4e-7,"MEAN_MOTION_DDOT":0},{"OBJECT_NAME":"BEIDOU-3 M16 (C35)","OBJECT_ID":"2018-078A","EPOCH":"2026-04-27T00:13:52.648032","MEAN_MOTION":1.86232321,"ECCENTRICITY":0.00081064,"INCLINATION":54.1375,"RA_OF_ASC_NODE":301.7792,"ARG_OF_PERICENTER":38.5821,"MEAN_ANOMALY":321.4712,"EPHEMERIS_TYPE":0,"CLASSIFICATION_TYPE":"U","NORAD_CAT_ID":43647,"ELEMENT_SET_NO":999,"REV_AT_EPOCH":5120,"BSTAR":0,"MEAN_MOTION_DOT":-6.3e-7,"MEAN_MOTION_DDOT":0},{"OBJECT_NAME":"BEIDOU-3 M15 (C34)","OBJECT_ID":"2018-078B","EPOCH":"2026-04-26T14:26:53.153376","MEAN_MOTION":1.86232072,"ECCENTRICITY":0.0005208,"INCLINATION":54.1328,"RA_OF_ASC_NODE":301.7937,"ARG_OF_PERICENTER":50.2977,"MEAN_ANOMALY":309.7445,"EPHEMERIS_TYPE":0,"CLASSIFICATION_TYPE":"U","NORAD_CAT_ID":43648,"ELEMENT_SET_NO":999,"REV_AT_EPOCH":5121,"BSTAR":0,"MEAN_MOTION_DOT":-5.9e-7,"MEAN_MOTION_DDOT":0}]
